{
  "links" : {
    "next" : "https://api.nasa.gov/neo/rest/v1/feed?start_date=2014-02-09&end_date=2014-02-09&detailed=true&api_key=t0TVs3DtDT2H8Oy2Zy8m2eVrNsAVKAexjcZXUckd",
    "prev" : "https://api.nasa.gov/neo/rest/v1/feed?start_date=2014-02-07&end_date=2014-02-07&detailed=true&api_key=t0TVs3DtDT2H8Oy2Zy8m2eVrNsAVKAexjcZXUckd",
    "self" : "https://api.nasa.gov/neo/rest/v1/feed?start_date=2014-02-08&end_date=2014-02-08&detailed=true&api_key=t0TVs3DtDT2H8Oy2Zy8m2eVrNsAVKAexjcZXUckd"
  },
  "element_count" : 9,
  "near_earth_objects" : {
    "2014-02-08" : [ {
      "links" : {
        "self" : "https://api.nasa.gov/neo/rest/v1/neo/2308242?api_key=t0TVs3DtDT2H8Oy2Zy8m2eVrNsAVKAexjcZXUckd"
      },
      "neo_reference_id" : "2308242",
      "name" : "308242 (2005 GO21)",
      "nasa_jpl_url" : "http://ssd.jpl.nasa.gov/sbdb.cgi?sstr=2308242",
      "absolute_magnitude_h" : 16.5,
      "estimated_diameter" : {
        "kilometers" : {
          "estimated_diameter_min" : 1.332155667,
          "estimated_diameter_max" : 2.978790628
        },
        "meters" : {
          "estimated_diameter_min" : 1332.1556669813,
          "estimated_diameter_max" : 2978.7906279817
        },
        "miles" : {
          "estimated_diameter_min" : 0.8277628989,
          "estimated_diameter_max" : 1.8509341113
        },
        "feet" : {
          "estimated_diameter_min" : 4370.5895984589,
          "estimated_diameter_max" : 9772.9354439076
        }
      },
      "is_potentially_hazardous_asteroid" : true,
      "close_approach_data" : [ {
        "close_approach_date" : "2014-02-08",
        "epoch_date_close_approach" : 1391846400000,
        "relative_velocity" : {
          "kilometers_per_second" : "18.2208117188",
          "kilometers_per_hour" : "65594.9221876624",
          "miles_per_hour" : "40758.1337337728"
        },
        "miss_distance" : {
          "astronomical" : "0.456050841",
          "lunar" : "177.4037780762",
          "kilometers" : "68224232",
          "miles" : "42392576"
        },
        "orbiting_body" : "Earth"
      } ],
      "orbital_data" : {
        "orbit_id" : "75",
        "orbit_determination_date" : "2017-04-06 09:23:57",
        "orbit_uncertainty" : "0",
        "minimum_orbit_intersection" : ".0436453",
        "jupiter_tisserand_invariant" : "7.557",
        "epoch_osculation" : "2458000.5",
        "eccentricity" : ".3399797159866457",
        "semi_major_axis" : ".7531844336406677",
        "inclination" : "24.9272962782371",
        "ascending_node_longitude" : "272.6928189515696",
        "orbital_period" : "238.7538758060025",
        "perihelion_distance" : ".4971170038059509",
        "perihelion_argument" : "156.6239373490321",
        "aphelion_distance" : "1.009251863475384",
        "perihelion_time" : "2458103.876113845509",
        "mean_anomaly" : "204.1265053446825",
        "mean_motion" : "1.507828925434974",
        "equinox" : "J2000"
      }
    }, {
      "links" : {
        "self" : "https://api.nasa.gov/neo/rest/v1/neo/2462238?api_key=t0TVs3DtDT2H8Oy2Zy8m2eVrNsAVKAexjcZXUckd"
      },
      "neo_reference_id" : "2462238",
      "name" : "462238 (2008 CN1)",
      "nasa_jpl_url" : "http://ssd.jpl.nasa.gov/sbdb.cgi?sstr=2462238",
      "absolute_magnitude_h" : 20.6,
      "estimated_diameter" : {
        "kilometers" : {
          "estimated_diameter_min" : 0.2016299194,
          "estimated_diameter_max" : 0.4508582062
        },
        "meters" : {
          "estimated_diameter_min" : 201.6299194428,
          "estimated_diameter_max" : 450.8582061718
        },
        "miles" : {
          "estimated_diameter_min" : 0.1252869847,
          "estimated_diameter_max" : 0.2801502144
        },
        "feet" : {
          "estimated_diameter_min" : 661.5155049046,
          "estimated_diameter_max" : 1479.1936371367
        }
      },
      "is_potentially_hazardous_asteroid" : true,
      "close_approach_data" : [ {
        "close_approach_date" : "2014-02-08",
        "epoch_date_close_approach" : 1391846400000,
        "relative_velocity" : {
          "kilometers_per_second" : "22.1207287303",
          "kilometers_per_hour" : "79634.6234289878",
          "miles_per_hour" : "49481.8580967508"
        },
        "miss_distance" : {
          "astronomical" : "0.4345765274",
          "lunar" : "169.05027771",
          "kilometers" : "65011724",
          "miles" : "40396412"
        },
        "orbiting_body" : "Earth"
      } ],
      "orbital_data" : {
        "orbit_id" : "58",
        "orbit_determination_date" : "2017-04-06 09:19:39",
        "orbit_uncertainty" : "1",
        "minimum_orbit_intersection" : ".0351116",
        "jupiter_tisserand_invariant" : "7.466",
        "epoch_osculation" : "2458000.5",
        "eccentricity" : ".347714349340407",
        "semi_major_axis" : ".7708253574759935",
        "inclination" : "7.217400175044434",
        "ascending_node_longitude" : "331.5301930493732",
        "orbital_period" : "247.190864495816",
        "perihelion_distance" : ".5027983198461418",
        "perihelion_argument" : "7.204913394057431",
        "aphelion_distance" : "1.038852395105845",
        "perihelion_time" : "2458111.043084209404",
        "mean_anomaly" : "199.0089763367494",
        "mean_motion" : "1.456364500906114",
        "equinox" : "J2000"
      }
    }, {
      "links" : {
        "self" : "https://api.nasa.gov/neo/rest/v1/neo/3070723?api_key=t0TVs3DtDT2H8Oy2Zy8m2eVrNsAVKAexjcZXUckd"
      },
      "neo_reference_id" : "3070723",
      "name" : "(2001 BY15)",
      "nasa_jpl_url" : "http://ssd.jpl.nasa.gov/sbdb.cgi?sstr=3070723",
      "absolute_magnitude_h" : 19.1,
      "estimated_diameter" : {
        "kilometers" : {
          "estimated_diameter_min" : 0.4023045798,
          "estimated_diameter_max" : 0.8995803882
        },
        "meters" : {
          "estimated_diameter_min" : 402.3045798343,
          "estimated_diameter_max" : 899.5803881691
        },
        "miles" : {
          "estimated_diameter_min" : 0.2499803991,
          "estimated_diameter_max" : 0.5589731654
        },
        "feet" : {
          "estimated_diameter_min" : 1319.8969577037,
          "estimated_diameter_max" : 2951.3793207207
        }
      },
      "is_potentially_hazardous_asteroid" : false,
      "close_approach_data" : [ {
        "close_approach_date" : "2014-02-08",
        "epoch_date_close_approach" : 1391846400000,
        "relative_velocity" : {
          "kilometers_per_second" : "17.6233861439",
          "kilometers_per_hour" : "63444.1901181653",
          "miles_per_hour" : "39421.7524653678"
        },
        "miss_distance" : {
          "astronomical" : "0.4129192258",
          "lunar" : "160.625579834",
          "kilometers" : "61771836",
          "miles" : "38383240"
        },
        "orbiting_body" : "Earth"
      } ],
      "orbital_data" : {
        "orbit_id" : "43",
        "orbit_determination_date" : "2017-04-06 09:16:35",
        "orbit_uncertainty" : "0",
        "minimum_orbit_intersection" : ".414405",
        "jupiter_tisserand_invariant" : "2.992",
        "epoch_osculation" : "2458000.5",
        "eccentricity" : ".5160988037281383",
        "semi_major_axis" : "2.657234511408138",
        "inclination" : "32.36377323747404",
        "ascending_node_longitude" : "125.3396498708946",
        "orbital_period" : "1582.133962514311",
        "perihelion_distance" : "1.285838958845274",
        "perihelion_argument" : "49.35990912718139",
        "aphelion_distance" : "4.028630063971002",
        "perihelion_time" : "2458320.133821712958",
        "mean_anomaly" : "287.2702700637312",
        "mean_motion" : ".2275407825945988",
        "equinox" : "J2000"
      }
    } ]
  }
}